XRISM                   
1 57800U 23137A   26093.53422592  .00009122  00000+0  51504-3 0  9999
2 57800  31.0011 122.9307 0007841 288.5773  71.4014 15.11805272141557
ACS3                    
1 59588U 24077B   26093.68882474  .00028359  00000+0  22128-1 0  9994
2 59588  97.1954  29.1827 0073382  20.1711 340.2327 13.90834416 97675
HTV-X1                  
1 66174U 25241A   26093.95240928  .00008859  00000+0  28902-3 0  9990
2 66174  51.6358 311.2938 0007291 270.0486  89.9660 15.32525679 24815
SZ-21 MODULE            
1 66515U 25246C   26093.57082554  .00056445  00000+0  44364-3 0  9995
2 66515  41.4748  49.9717 0002970 226.3876 133.6720 15.70603524 21987
